{
  "type": "FeatureCollection",
  "features": [
    {
      "type": "Feature",
      "properties": {
        "norad_id": 41773,
        "name": "SKYSAT-C2",
        "group": "resource",
        "lat": -38.91847134243595,
        "lon": 31.263038367795456,
        "alt_km": 458.1875967658907,
        "timestamp": "2025-12-27T15:27:10.800755+00:00",
        "meta_object_name": "SKYSAT-C2",
        "meta_object_id": "2016-058D",
        "meta_epoch": "2025-12-27T07:48:50.206176",
        "meta_mean_motion": 15.37603061,
        "meta_eccentricity": 0.00025195,
        "meta_inclination": 97.0354,
        "meta_ra_of_asc_node": 25.2352,
        "meta_arg_of_pericenter": 348.3195,
        "meta_mean_anomaly": 11.7991,
        "meta_ephemeris_type": 0,
        "meta_classification_type": "U",
        "meta_norad_cat_id": 41773,
        "meta_element_set_no": 999,
        "meta_rev_at_epoch": 51860,
        "meta_bstar": 0.00034154478,
        "meta_mean_motion_dot": 0.00012534,
        "meta_mean_motion_ddot": 0,
        "tle_line1": "1 41773U 16058D   25361.32558109  .00012534  00000+0  34154-3 0  9996",
        "tle_line2": "2 41773  97.0354  25.2352 0002519 348.3195  11.7991 15.37603061518601"
      },
      "geometry": {
        "type": "Point",
        "coordinates": [
          31.263038367795456,
          -38.91847134243595
        ]
      }
    },
    {
      "type": "Feature",
      "properties": {
        "norad_id": 41774,
        "name": "SKYSAT-C3",
        "group": "resource",
        "lat": 3.5546067351946977,
        "lon": -144.86877681754765,
        "alt_km": 433.78912487939397,
        "timestamp": "2025-12-27T15:27:10.800766+00:00",
        "meta_object_name": "SKYSAT-C3",
        "meta_object_id": "2016-058E",
        "meta_epoch": "2025-12-27T02:15:23.553504",
        "meta_mean_motion": 15.4491929,
        "meta_eccentricity": 0.00021259,
        "meta_inclination": 96.9283,
        "meta_ra_of_asc_node": 34.1738,
        "meta_arg_of_pericenter": 105.0525,
        "meta_mean_anomaly": 255.0961,
        "meta_ephemeris_type": 0,
        "meta_classification_type": "U",
        "meta_norad_cat_id": 41774,
        "meta_element_set_no": 999,
        "meta_rev_at_epoch": 51947,
        "meta_bstar": 0.00045270234,
        "meta_mean_motion_dot": 0.00021233,
        "meta_mean_motion_ddot": 0,
        "tle_line1": "1 41774U 16058E   25361.09402261  .00021233  00000+0  45270-3 0  9995",
        "tle_line2": "2 41774  96.9283  34.1738 0002125 105.0525 255.0961 15.44919290519474"
      },
      "geometry": {
        "type": "Point",
        "coordinates": [
          -144.86877681754765,
          3.5546067351946977
        ]
      }
    },
    {
      "type": "Feature",
      "properties": {
        "norad_id": 41785,
        "name": "ALSAT 1B",
        "group": "resource",
        "lat": 70.7722063296323,
        "lon": -144.12748356271038,
        "alt_km": 642.3318868903798,
        "timestamp": "2025-12-27T15:27:10.800776+00:00",
        "meta_object_name": "ALSAT 1B",
        "meta_object_id": "2016-059C",
        "meta_epoch": "2025-12-27T06:48:36.846720",
        "meta_mean_motion": 14.72091932,
        "meta_eccentricity": 0.00106975,
        "meta_inclination": 97.7813,
        "meta_ra_of_asc_node": 12.4454,
        "meta_arg_of_pericenter": 62.7115,
        "meta_mean_anomaly": 297.5181,
        "meta_ephemeris_type": 0,
        "meta_classification_type": "U",
        "meta_norad_cat_id": 41785,
        "meta_element_set_no": 999,
        "meta_rev_at_epoch": 49528,
        "meta_bstar": 0.00015075908,
        "meta_mean_motion_dot": 9.02e-06,
        "meta_mean_motion_ddot": 0,
        "tle_line1": "1 41785U 16059C   25361.28375980  .00000902  00000+0  15076-3 0  9997",
        "tle_line2": "2 41785  97.7813  12.4454 0010697  62.7115 297.5181 14.72091932495286"
      },
      "geometry": {
        "type": "Point",
        "coordinates": [
          -144.12748356271038,
          70.7722063296323
        ]
      }
    },
    {
      "type": "Feature",
      "properties": {
        "norad_id": 41787,
        "name": "PATHFINDER 1",
        "group": "resource",
        "lat": -67.36302297460398,
        "lon": 22.952121883754753,
        "alt_km": 681.846509613435,
        "timestamp": "2025-12-27T15:27:10.800786+00:00",
        "meta_object_name": "PATHFINDER 1",
        "meta_object_id": "2016-059E",
        "meta_epoch": "2025-12-27T05:56:43.715616",
        "meta_mean_motion": 14.67347486,
        "meta_eccentricity": 0.00294814,
        "meta_inclination": 97.814,
        "meta_ra_of_asc_node": 3.3481,
        "meta_arg_of_pericenter": 36.8288,
        "meta_mean_anomaly": 323.4935,
        "meta_ephemeris_type": 0,
        "meta_classification_type": "U",
        "meta_norad_cat_id": 41787,
        "meta_element_set_no": 999,
        "meta_rev_at_epoch": 49449,
        "meta_bstar": 0.00018977005,
        "meta_mean_motion_dot": 1.032e-05,
        "meta_mean_motion_ddot": 0,
        "tle_line1": "1 41787U 16059E   25361.24772819  .00001032  00000+0  18977-3 0  9995",
        "tle_line2": "2 41787  97.8140   3.3481 0029481  36.8288 323.4935 14.67347486494495"
      },
      "geometry": {
        "type": "Point",
        "coordinates": [
          22.952121883754753,
          -67.36302297460398
        ]
      }
    },
    {
      "type": "Feature",
      "properties": {
        "norad_id": 41790,
        "name": "SCATSAT 1",
        "group": "resource",
        "lat": -8.293603359246854,
        "lon": -122.69721832868872,
        "alt_km": 648.0751363204663,
        "timestamp": "2025-12-27T15:27:10.800796+00:00",
        "meta_object_name": "SCATSAT 1",
        "meta_object_id": "2016-059H",
        "meta_epoch": "2025-12-27T03:14:38.784768",
        "meta_mean_motion": 14.78983356,
        "meta_eccentricity": 0.00564381,
        "meta_inclination": 98.1445,
        "meta_ra_of_asc_node": 57.984,
        "meta_arg_of_pericenter": 82.6627,
        "meta_mean_anomaly": 278.0993,
        "meta_ephemeris_type": 0,
        "meta_classification_type": "U",
        "meta_norad_cat_id": 41790,
        "meta_element_set_no": 999,
        "meta_rev_at_epoch": 7615,
        "meta_bstar": 0.00023346055,
        "meta_mean_motion_dot": 1.714e-05,
        "meta_mean_motion_ddot": 0,
        "tle_line1": "1 41790U 16059H   25361.13517112  .00001714  00000+0  23346-3 0  9993",
        "tle_line2": "2 41790  98.1445  57.9840 0056438  82.6627 278.0993 14.78983356 76155"
      },
      "geometry": {
        "type": "Point",
        "coordinates": [
          -122.69721832868872,
          -8.293603359246854
        ]
      }
    },
    {
      "type": "Feature",
      "properties": {
        "norad_id": 41875,
        "name": "GOKTURK 1A",
        "group": "resource",
        "lat": 53.42453422513653,
        "lon": 84.93532368205345,
        "alt_km": 678.4989696900157,
        "timestamp": "2025-12-27T15:27:10.800806+00:00",
        "meta_object_name": "GOKTURK 1A",
        "meta_object_id": "2016-073A",
        "meta_epoch": "2025-12-27T06:40:19.262208",
        "meta_mean_motion": 14.62796521,
        "meta_eccentricity": 0.00012793,
        "meta_inclination": 98.1422,
        "meta_ra_of_asc_node": 253.4496,
        "meta_arg_of_pericenter": 81.3648,
        "meta_mean_anomaly": 278.7698,
        "meta_ephemeris_type": 0,
        "meta_classification_type": "U",
        "meta_norad_cat_id": 41875,
        "meta_element_set_no": 999,
        "meta_rev_at_epoch": 48369,
        "meta_bstar": 0.00012269362,
        "meta_mean_motion_dot": 5.79e-06,
        "meta_mean_motion_ddot": 0,
        "tle_line1": "1 41875U 16073A   25361.27800072  .00000579  00000+0  12269-3 0  9998",
        "tle_line2": "2 41875  98.1422 253.4496 0001279  81.3648 278.7698 14.62796521483695"
      },
      "geometry": {
        "type": "Point",
        "coordinates": [
          84.93532368205345,
          53.42453422513653
        ]
      }
    },
    {
      "type": "Feature",
      "properties": {
        "norad_id": 41877,
        "name": "RESOURCESAT-2A",
        "group": "resource",
        "lat": 50.5288041468496,
        "lon": -97.77981854148724,
        "alt_km": 814.6982913008742,
        "timestamp": "2025-12-27T15:27:10.800817+00:00",
        "meta_object_name": "RESOURCESAT-2A",
        "meta_object_id": "2016-074A",
        "meta_epoch": "2025-12-27T08:05:36.375648",
        "meta_mean_motion": 14.21606234,
        "meta_eccentricity": 0.00017311,
        "meta_inclination": 98.7732,
        "meta_ra_of_asc_node": 71.1069,
        "meta_arg_of_pericenter": 193.4557,
        "meta_mean_anomaly": 166.6574,
        "meta_ephemeris_type": 0,
        "meta_classification_type": "U",
        "meta_norad_cat_id": 41877,
        "meta_element_set_no": 999,
        "meta_rev_at_epoch": 46988,
        "meta_bstar": 0.0001484656,
        "meta_mean_motion_dot": 2.81e-06,
        "meta_mean_motion_ddot": 0,
        "tle_line1": "1 41877U 16074A   25361.33722657  .00000281  00000+0  14847-3 0  9994",
        "tle_line2": "2 41877  98.7732  71.1069 0001731 193.4557 166.6574 14.21606234469884"
      },
      "geometry": {
        "type": "Point",
        "coordinates": [
          -97.77981854148724,
          50.5288041468496
        ]
      }
    }
  ]
}